NORAD_CAT_ID,OBJECT_NAME,OBJECT_TYPE,EPOCH,MEAN_MOTION,ECCENTRICITY,INCLINATION,RA_OF_ASC_NODE,ARG_OF_PERICENTER,MEAN_ANOMALY,BSTAR,MEAN_MOTION_DOT,MEAN_MOTION_DDOT,TLE_LINE0,TLE_LINE1,TLE_LINE2,SEMIMAJOR_AXIS,PERIOD,APOGEE,PERIGEE,DECAYED
52849.0,STARLINK-4197,PAYLOAD,2023-06-24 01:55:28,15.08833445,0.00011,53.2151,146.6484,86.1255,273.9863,2.0258e-05,3.5e-07,0.0,0 STARLINK-4197,1 52849U 22062V   23175.08019619  .00000035  00000-0  20258-4 0  9991,2 52849  53.2151 146.6484 0001100  86.1255 273.9863 15.08833445 57011,6917.9,95.438,540.526,539.004,0.0
52849.0,STARLINK-4197,PAYLOAD,2023-06-24 08:17:01,15.08838681,0.0001165,53.2159,145.4585,95.6198,264.4927,6.8188e-05,7.98e-06,0.0,0 STARLINK-4197,1 52849U 22062V   23175.34515195  .00000798  00000-0  68188-4 0  9990,2 52849  53.2159 145.4585 0001165  95.6198 264.4927 15.08838681 57057,6917.884,95.438,540.555,538.943,0.0
52849.0,STARLINK-4197,PAYLOAD,2023-06-25 14:29:21,15.08837344,0.0001112,53.2167,139.8091,86.8086,273.3033,5.6621e-05,6.13e-06,0.0,0 STARLINK-4197,1 52849U 22062V   23176.60371625  .00000613  00000-0  56621-4 0  9993,2 52849  53.2167 139.8091 0001112  86.8086 273.3033 15.08837344 57248,6917.889,95.438,540.523,538.984,0.0
52849.0,STARLINK-4197,PAYLOAD,2023-06-27 01:27:50,15.088325,0.0001314,53.2176,133.2675,92.7927,267.3215,5.4613e-07,-2.79e-06,0.0,0 STARLINK-4197,1 52849U 22062V   23178.06100633 -.00000279  00000-0  54613-6 0  9994,2 52849  53.2176 133.2675 0001314  92.7927 267.3215 15.08832500 57466,6917.903,95.438,540.677,538.859,0.0
52849.0,STARLINK-4197,PAYLOAD,2023-06-27 14:10:57,15.08824271,0.000138,53.2173,130.8891,85.3414,274.7736,-0.00010019,-1.881e-05,0.0,0 STARLINK-4197,1 52849U 22062V   23178.59093787 -.00001881  00000-0 -10019-3 0  9993,2 52849  53.2173 130.8891 0001380  85.3414 274.7736 15.08824271 57543,6917.928,95.439,540.748,538.839,0.0
52849.0,STARLINK-4197,PAYLOAD,2023-06-28 06:04:48,15.08829261,0.0001398,53.2168,127.9142,94.8235,265.2916,-2.2396e-06,-3.24e-06,0.0,0 STARLINK-4197,1 52849U 22062V   23179.25333994 -.00000324  00000-0 -22396-5 0  9998,2 52849  53.2168 127.9142 0001398  94.8235 265.2916 15.08829261 57648,6917.913,95.438,540.745,538.811,0.0
52849.0,STARLINK-4197,PAYLOAD,2023-06-29 02:44:48,15.08843928,0.0001424,53.2168,124.0485,91.9837,268.1319,0.00012804,1.751e-05,0.0,0 STARLINK-4197,1 52849U 22062V   23180.11444958  .00001751  00000-0  12804-3 0  9992,2 52849  53.2168 124.0485 0001424  91.9837 268.1319 15.08843928 57771,6917.868,95.437,540.718,538.748,0.0
52849.0,STARLINK-4197,PAYLOAD,2023-06-30 15:18:40,15.08842059,0.00011,53.2165,117.2083,80.2603,279.8513,-2.0833e-05,-6.19e-06,0.0,0 STARLINK-4197,1 52849U 22062V   23181.63797077 -.00000619  00000-0 -20833-4 0  9999,2 52849  53.2165 117.2083 0001100  80.2603 279.8513 15.08842059 58005,6917.874,95.437,540.5,538.978,0.0
52849.0,STARLINK-4197,PAYLOAD,2023-07-02 02:17:09,15.08851036,0.0001327,53.2167,110.668,90.0164,270.098,-6.2402e-05,-1.281e-05,0.0,0 STARLINK-4197,1 52849U 22062V   23183.09524365 -.00001281  00000-0 -62402-4 0  9993,2 52849  53.2167 110.6680 0001327  90.0164 270.0980 15.08851036 58229,6917.847,95.437,540.63,538.794,0.0
52849.0,STARLINK-4197,PAYLOAD,2023-07-02 15:00:14,15.08843342,0.0001413,53.2167,108.2893,96.3218,263.7935,-6.9481e-05,-1.394e-05,0.0,0 STARLINK-4197,1 52849U 22062V   23183.62516676 -.00001394  00000-0 -69481-4 0  9997,2 52849  53.2167 108.2893 0001413  96.3218 263.7935 15.08843342 58302,6917.87,95.437,540.713,538.758,0.0
52849.0,STARLINK-4197,PAYLOAD,2023-07-03 11:40:15,15.0883664,0.0001268,53.2167,104.4229,85.6689,274.4448,6.1326e-05,6.88e-06,0.0,0 STARLINK-4197,1 52849U 22062V   23184.48629022  .00000688  00000-0  61326-4 0  9995,2 52849  53.2167 104.4229 0001268  85.6689 274.4448 15.08836640 58439,6917.891,95.438,540.633,538.878,0.0
52849.0,STARLINK-4197,PAYLOAD,2023-07-05 00:14:07,15.08845619,0.0001171,53.2168,97.5839,89.7862,270.3265,0.00011819,1.594e-05,0.0,0 STARLINK-4197,1 52849U 22062V   23186.00980460  .00001594  00000-0  11819-3 0  9999,2 52849  53.2168  97.5839 0001171  89.7862 270.3265 15.08845619 58663,6917.863,95.437,540.538,538.918,0.0
52849.0,STARLINK-4197,PAYLOAD,2023-07-05 11:21:49,15.08842275,0.0001096,53.2167,95.5023,88.1447,271.9671,3.384e-05,2.51e-06,0.0,0 STARLINK-4197,1 52849U 22062V   23186.47348830  .00000251  00000-0  33840-4 0  9997,2 52849  53.2167  95.5023 0001096  88.1447 271.9671 15.08842275 58734,6917.873,95.437,540.497,538.98,0.0
52849.0,STARLINK-4197,PAYLOAD,2023-07-06 00:04:55,15.08831056,0.0001145,53.2167,93.1233,85.3771,274.7352,6.4985e-05,7.46e-06,0.0,0 STARLINK-4197,1 52849U 22062V   23187.00341588  .00000746  00000-0  64985-4 0  9993,2 52849  53.2167  93.1233 0001145  85.3771 274.7352 15.08831056 58816,6917.908,95.438,540.565,538.981,0.0
52849.0,STARLINK-4197,PAYLOAD,2023-07-07 03:06:26,15.08853395,0.000125,53.2171,88.0677,88.1525,271.961,8.2303e-05,1.023e-05,0.0,0 STARLINK-4197,1 52849U 22062V   23188.12947835  .00001023  00000-0  82303-4 0  9997,2 52849  53.2171  88.0677 0001250  88.1525 271.9610 15.08853395 58985,6917.839,95.437,540.569,538.84,0.0
52849.0,STARLINK-4197,PAYLOAD,2023-07-07 23:46:28,15.08835673,0.0001173,53.2181,84.2013,87.8007,272.3119,3.6522e-05,2.93e-06,0.0,0 STARLINK-4197,1 52849U 22062V   23188.99061048  .00000293  00000-0  36522-4 0  9995,2 52849  53.2181  84.2013 0001173  87.8007 272.3119 15.08835673 59117,6917.894,95.438,540.57,538.947,0.0
52849.0,STARLINK-4197,PAYLOAD,2023-07-08 17:15:43,15.08684902,0.000193,53.2179,80.9296,117.0179,243.101,0.0018477,0.00029116,0.0,0 STARLINK-4197,1 52849U 22062V   23189.71925798  .00029116  00000-0  18477-2 0  9999,2 52849  53.2179  80.9296 0001930 117.0179 243.1010 15.08684902 59222,6918.355,95.447,541.555,538.884,0.0
52849.0,STARLINK-4197,PAYLOAD,2023-07-08 23:37:16,15.08788562,0.0001414,53.2179,79.7431,116.0262,244.0876,0.00064252,9.938e-05,0.0,0 STARLINK-4197,1 52849U 22062V   23189.98421942  .00009938  00000-0  64252-3 0  9993,2 52849  53.2179  79.7431 0001414 116.0262 244.0876 15.08788562 59269,6918.038,95.441,540.881,538.924,0.0
52849.0,STARLINK-4197,PAYLOAD,2023-07-09 09:09:34,15.08834488,0.0001141,53.218,77.9585,103.2499,256.862,3.5573e-05,2.78e-06,0.0,0 STARLINK-4197,1 52849U 22062V   23190.38165398  .00000278  00000-0  35573-4 0  9992,2 52849  53.2180  77.9585 0001141 103.2499 256.8620 15.08834488 59322,6917.897,95.438,540.552,538.973,0.0
52849.0,STARLINK-4197,PAYLOAD,2023-07-11 00:54:13,15.08839131,0.0001109,53.2176,70.5254,93.3256,266.7863,7.4526e-05,8.98e-06,0.0,0 STARLINK-4197,1 52849U 22062V   23192.03765528  .00000898  00000-0  74526-4 0  9996,2 52849  53.2176  70.5254 0001109  93.3256 266.7863 15.08839131 59579,6917.883,95.438,540.515,538.981,0.0
52849.0,STARLINK-4197,PAYLOAD,2023-07-12 08:41:56,15.08837192,0.0001426,53.2189,64.5755,81.0659,279.0494,4.1e-05,3.65e-06,0.0,0 STARLINK-4197,1 52849U 22062V   23193.36246043  .00000365  00000-0  41000-4 0  9999,2 52849  53.2189  64.5755 0001426  81.0659 279.0494 15.08837192 59779,6917.889,95.438,540.74,538.767,0.0
52849.0,STARLINK-4197,PAYLOAD,2023-07-13 21:15:48,15.08840177,0.0001119,53.2185,57.7368,88.0096,272.1025,1.136e-05,-1.07e-06,0.0,0 STARLINK-4197,1 52849U 22062V   23194.88598040 -.00000107  00000-0  11360-4 0  9995,2 52849  53.2185  57.7368 0001119  88.0096 272.1025 15.08840177 60009,6917.88,95.438,540.519,538.971,0.0
52849.0,STARLINK-4197,PAYLOAD,2023-07-15 00:17:21,15.0885153,0.0001141,53.2182,52.6798,94.422,265.6903,8.824e-05,1.117e-05,0.0,0 STARLINK-4197,1 52849U 22062V   23196.01204941  .00001117  00000-0  88240-4 0  9998,2 52849  53.2182  52.6798 0001141  94.4220 265.6903 15.08851530 60177,6917.845,95.437,540.499,538.921,0.0
52849.0,STARLINK-4197,PAYLOAD,2023-07-15 14:35:50,15.08820558,0.0001558,53.2193,50.0005,114.2376,245.8779,0.00021706,3.166e-05,0.0,0 STARLINK-4197,1 52849U 22062V   23196.60821955  .00003166  00000-0  21706-3 0  9992,2 52849  53.2193  50.0005 0001558 114.2376 245.8779 15.08820558 60264,6917.94,95.439,540.883,538.727,0.0
52849.0,STARLINK-4197,PAYLOAD,2023-07-15 22:32:45,15.0884052,0.0001147,53.2182,48.5166,100.2137,259.8985,2.049e-05,3.8e-07,0.0,0 STARLINK-4197,1 52849U 22062V   23196.93941812  .00000038  00000-0  20490-4 0  9998,2 52849  53.2182  48.5166 0001147 100.2137 259.8985 15.08840520 60317,6917.879,95.438,540.537,538.95,0.0
52849.0,STARLINK-4197,PAYLOAD,2023-07-16 17:37:24,15.08836035,0.0001131,53.2181,44.949,97.4397,262.6724,-7.155e-05,-1.426e-05,0.0,0 STARLINK-4197,1 52849U 22062V   23197.73430604 -.00001426  00000-0 -71550-4 0  9996,2 52849  53.2181  44.9490 0001131  97.4397 262.6724 15.08836035 60436,6917.893,95.438,540.54,538.975,0.0
52849.0,STARLINK-4197,PAYLOAD,2023-07-17 20:38:56,15.08847231,0.0001088,53.2182,39.8959,98.7781,261.3334,0.00015039,2.107e-05,0.0,0 STARLINK-4197,1 52849U 22062V   23198.86037346  .00002107  00000-0  15039-3 0  9991,2 52849  53.2182  39.8959 0001088  98.7781 261.3334 15.08847231 60604,6917.858,95.437,540.476,538.971,0.0
52849.0,STARLINK-4197,PAYLOAD,2023-07-18 23:40:30,15.08838098,9.68e-05,53.2179,34.8404,85.6498,274.4604,5.4697e-05,5.83e-06,0.0,0 STARLINK-4197,1 52849U 22062V   23199.98646568  .00000583  00000-0  54697-4 0  9997,2 52849  53.2179  34.8404 0000968  85.6498 274.4604 15.08838098 60770,6917.886,95.438,540.421,539.082,0.0
52849.0,STARLINK-4197,PAYLOAD,2023-07-20 21:46:41,15.08848176,0.0001021,53.2183,26.2166,76.8592,283.2514,0.00016884,2.401e-05,0.0,0 STARLINK-4197,1 52849U 22062V   23201.90742083  .00002401  00000-0  16884-3 0  9998,2 52849  53.2183  26.2166 0001021  76.8592 283.2514 15.08848176 61062,6917.855,95.437,540.427,539.014,0.0
52849.0,STARLINK-4197,PAYLOAD,2023-07-24 11:37:31,15.08837451,0.0001008,53.2185,10.1582,110.0738,250.0363,4.1997e-05,3.81e-06,0.0,0 STARLINK-4197,1 52849U 22062V   23205.48438963  .00000381  00000-0  41997-4 0  9993,2 52849  53.2185  10.1582 0001008 110.0738 250.0363 15.08837451 61110,6917.888,95.438,540.451,539.056,0.0
